NORAD_CAT_ID,OBJECT_NAME,OBJECT_TYPE,EPOCH,MEAN_MOTION,ECCENTRICITY,INCLINATION,RA_OF_ASC_NODE,ARG_OF_PERICENTER,MEAN_ANOMALY,BSTAR,MEAN_MOTION_DOT,MEAN_MOTION_DDOT,TLE_LINE0,TLE_LINE1,TLE_LINE2,SEMIMAJOR_AXIS,PERIOD,APOGEE,PERIGEE,DECAYED
52298.0,STARLINK-3760,PAYLOAD,2022-08-10 06:00:00,15.08830917,0.0001723,53.2153,208.4305,57.9358,113.6683,-0.0010386,-0.00016775,0.0,0 STARLINK-3760,1 52298U 22041AP  22222.25001157 -.00016775  00000-0 -10386-2 0  9994,2 52298  53.2153 208.4305 0001723  57.9358 113.6683 15.08830917 18345,6917.908,95.438,540.965,538.581,0.0
52298.0,STARLINK-3760,PAYLOAD,2022-08-10 14:00:01,15.08842706,0.0001693,53.2152,206.9335,56.7891,126.3867,-0.0017522,-0.00028068,0.0,0 STARLINK-3760,1 52298U 22041AP  22222.58334491 -.00028068  00000-0 -17522-2 0  9997,2 52298  53.2152 206.9335 0001693  56.7891 126.3867 15.08842706  1307,6917.871999999999,95.437,540.908,538.566,0.0
52298.0,STARLINK-3760,PAYLOAD,2022-08-10 22:00:00,15.08820213,0.0001654,53.2155,205.436,64.0486,130.7125,0.0017694,0.00027969,0.0,0 STARLINK-3760,1 52298U 22041AP  22222.91667824  .00027969  00000-0  17694-2 0  9990,2 52298  53.2155 205.4360 0001654  64.0486 130.7125 15.08820213  1306,6917.941,95.439,540.95,538.6619999999998,0.0
52298.0,STARLINK-3760,PAYLOAD,2022-08-11 14:00:01,15.08855784,0.000177,53.2157,202.4442,57.2911,160.6382,-0.0019451,-0.00031125,0.0,0 STARLINK-3760,1 52298U 22041AP  22223.58334491 -.00031125  00000-0 -19451-2 0  9999,2 52298  53.2157 202.4442 0001770  57.2911 160.6382 15.08855784  1300,6917.831999999999,95.437,540.922,538.4730000000002,0.0
52298.0,STARLINK-3760,PAYLOAD,2022-08-11 22:00:00,15.08836221,0.0001747,53.2162,200.9467,64.0069,165.5224,0.0017166,0.00027135,0.0,0 STARLINK-3760,1 52298U 22041AP  22223.91667824  .00027135  00000-0  17166-2 0  9990,2 52298  53.2162 200.9467 0001747  64.0069 165.5224 15.08836221 18593,6917.892,95.438,540.965,538.548,0.0
52298.0,STARLINK-3760,PAYLOAD,2022-08-12 14:00:01,15.088803,0.0001769,53.2166,197.9548,57.2405,195.4985,-0.0046897,-0.00074239,0.0,0 STARLINK-3760,1 52298U 22041AP  22224.58334491 -.00074239  00000-0 -46897-2 0  9997,2 52298  53.2166 197.9548 0001769  57.2405 195.4985 15.08880300 18698,6917.757,95.435,540.846,538.398,0.0
52298.0,STARLINK-3760,PAYLOAD,2022-08-12 22:00:01,15.08828621,0.0001709,53.2171,196.4575,62.9551,201.4523,0.0015808,0.00024952,0.0,0 STARLINK-3760,1 52298U 22041AP  22224.91668981  .00024952  00000-0  15808-2 0  9991,2 52298  53.2171 196.4575 0001709  62.9551 201.4523 15.08828621  1301,6917.915,95.438,540.962,538.5980000000002,0.0
52298.0,STARLINK-3760,PAYLOAD,2022-08-13 14:00:01,15.08853512,0.0001706999999999,53.2174,193.4657,56.1893,231.3379,-0.0039624,-0.00062824,0.0,0 STARLINK-3760,1 52298U 22041AP  22225.58334491 -.00062824  00000-0 -39624-2 0  9995,2 52298  53.2174 193.4657 0001707  56.1893 231.3379 15.08853512  1302,6917.839,95.437,540.885,538.523,0.0
52298.0,STARLINK-3760,PAYLOAD,2022-08-13 22:00:00,15.08819684,0.0001634,53.2178,191.9686,62.5525,236.5567,0.0013357,0.00021022,0.0,0 STARLINK-3760,1 52298U 22041AP  22225.91667824  .00021022  00000-0  13357-2 0  9999,2 52298  53.2178 191.9686 0001634  62.5525 236.5567 15.08819684  1301,6917.941999999999,95.439,540.938,538.677,0.0
52298.0,STARLINK-3760,PAYLOAD,2022-08-14 06:00:02,15.08837075,0.0001965,53.2175,190.4828,52.5873,258.1497,-9.9048e-06,-4.46e-06,0.0,0 STARLINK-3760,1 52298U 22041AP  22226.25002315 -.00000446  00000-0 -99048-5 0  9998,2 52298  53.2175 190.4828 0001965  52.5873 258.1497 15.08837075 18946,6917.889,95.438,541.114,538.395,0.0
52298.0,STARLINK-3760,PAYLOAD,2022-08-14 14:00:01,15.08848383,0.0001692,53.2178,188.9768,57.5434,264.761,-0.001842,-0.00029491,0.0,0 STARLINK-3760,1 52298U 22041AP  22226.58334491 -.00029491  00000-0 -18420-2 0  9990,2 52298  53.2178 188.9768 0001692  57.5434 264.7610 15.08848383  1305,6917.855,95.437,540.89,538.549,0.0
52298.0,STARLINK-3760,PAYLOAD,2022-08-14 22:00:00,15.08840498,0.0001635,53.2181,187.48,63.9395,269.9533,0.00094474,0.0001478,0.0,0 STARLINK-3760,1 52298U 22041AP  22226.91667824  .00014780  00000-0  94474-3 0  9993,2 52298  53.2181 187.4800 0001635  63.9395 269.9533 15.08840498  1304,6917.879,95.438,540.875,538.613,0.0
52298.0,STARLINK-3760,PAYLOAD,2022-08-15 14:00:01,15.08829976,0.0001592,53.2176,184.488,57.8538,299.2340000000001,-0.0015789,-0.00025321,0.0,0 STARLINK-3760,1 52298U 22041AP  22227.58334491 -.00025321  00000-0 -15789-2 0  9994,2 52298  53.2176 184.4880 0001592  57.8538 299.2340 15.08829976 19147,6917.911,95.438,540.877,538.675,0.0
52298.0,STARLINK-3760,PAYLOAD,2022-08-15 22:00:00,15.08829878,0.0001554,53.2178,182.9915,64.0238,304.6334,0.00038017,5.766e-05,0.0,0 STARLINK-3760,1 52298U 22041AP  22227.91667824  .00005766  00000-0  38017-3 0  9999,2 52298  53.2178 182.9915 0001554  64.0238 304.6334 15.08829878  1300,6917.911,95.438,540.851,538.701,0.0
52298.0,STARLINK-3760,PAYLOAD,2022-08-16 06:00:02,15.08814925,0.0001713,53.2176,181.4969,56.9571,323.3511,0.0016436,0.00025949,0.0,0 STARLINK-3760,1 52298U 22041AP  22228.25002315  .00025949  00000-0  16436-2 0  9990,2 52298  53.2176 181.4969 0001713  56.9571 323.3511 15.08814925 19242,6917.956999999999,95.439,541.007,538.637,0.0
52298.0,STARLINK-3760,PAYLOAD,2022-08-16 14:00:01,15.08841151,0.0001616,53.2172,179.9993,60.7239,331.0992,-0.0010991,-0.00017738,0.0,0 STARLINK-3760,1 52298U 22041AP  22228.58334491 -.00017738  00000-0 -10991-2 0  9998,2 52298  53.2172 179.9993 0001616  60.7239 331.0992 15.08841151  1301,6917.877,95.437,540.86,538.624,0.0
52298.0,STARLINK-3760,PAYLOAD,2022-08-16 22:00:00,15.08848749,0.0001617,53.2172,178.5029,65.5683,337.841,-6.8963e-05,-1.386e-05,0.0,0 STARLINK-3760,1 52298U 22041AP  22228.91667824 -.00001386  00000-0 -68963-4 0  9990,2 52298  53.2172 178.5029 0001617  65.5683 337.8410 15.08848749  1302,6917.854,95.437,540.837,538.6,0.0
52298.0,STARLINK-3760,PAYLOAD,2022-08-17 06:00:02,15.08833111,0.0001720999999999,53.217,177.0082,57.9582,357.1223,0.0012924,0.00020337,0.0,0 STARLINK-3760,1 52298U 22041AP  22229.25002315  .00020337  00000-0  12924-2 0  9995,2 52298  53.2170 177.0082 0001721  57.9582 357.1223 15.08833111 19406,6917.901,95.438,540.957,538.576,0.0
52298.0,STARLINK-3760,PAYLOAD,2022-08-17 16:00:00,15.08815163,0.0001508,53.2166,175.1359,61.5734,97.9504,0.0015889,0.00025073,0.0,0 STARLINK-3760,1 52298U 22041AP  22229.66667824  .00025073  00000-0  15889-2 0  9997,2 52298  53.2166 175.1359 0001508  61.5734  97.9504 15.08815163  1308,6917.956,95.439,540.865,538.778,0.0
52298.0,STARLINK-3760,PAYLOAD,2022-08-18 14:00:01,15.0885845,0.0001573,53.2166,171.0212,61.1401,40.2653,0.00022142,3.239e-05,0.0,0 STARLINK-3760,1 52298U 22041AP  22230.58334491  .00003239  00000-0  22142-3 0  9992,2 52298  53.2166 171.0212 0001573  61.1401  40.2653 15.08858450  1302,6917.824000000001,95.436,540.7769999999998,538.601,0.0
52298.0,STARLINK-3760,PAYLOAD,2022-08-18 22:00:00,15.08876982,0.0001576999999999,53.2166,169.5248,63.155,49.8611,-0.0029108,-0.00046362,0.0,0 STARLINK-3760,1 52298U 22041AP  22230.91667824 -.00046362  00000-0 -29108-2 0  9992,2 52298  53.2166 169.5248 0001577  63.1550  49.8611 15.08876982  1303,6917.767,95.435,540.7230000000002,538.5409999999998,0.0
52298.0,STARLINK-3760,PAYLOAD,2022-08-19 14:00:01,15.08814311,0.0001525,53.2168,166.532,58.4831,77.7474,-0.00097174,-0.00015709,0.0,0 STARLINK-3760,1 52298U 22041AP  22231.58334491 -.00015709  00000-0 -97174-3 0  9997,2 52298  53.2168 166.5320 0001525  58.4831  77.7474 15.08814311  1300,6917.959,95.439,540.879,538.769,0.0
52298.0,STARLINK-3760,PAYLOAD,2022-08-19 22:00:00,15.08821083,0.000164,53.217,165.0358,61.8204,85.959,-0.00073256,-0.00011922,0.0,0 STARLINK-3760,1 52298U 22041AP  22231.91667824 -.00011922  00000-0 -73256-3 0  9991,2 52298  53.2170 165.0358 0001640  61.8204  85.9590 15.08821083 19806,6917.938,95.439,540.938,538.669,0.0
52298.0,STARLINK-3760,PAYLOAD,2022-08-20 14:00:01,15.08817666,0.0001621,53.2172,162.043,60.3085,110.6093,0.001288,0.00020257,0.0,0 STARLINK-3760,1 52298U 22041AP  22232.58334491  .00020257  00000-0  12880-2 0  9990,2 52298  53.2172 162.0430 0001621  60.3085 110.6093 15.08817666  1308,6917.949000000001,95.439,540.935,538.692,0.0
52298.0,STARLINK-3760,PAYLOAD,2022-08-20 22:00:00,15.08848609,0.0001699,53.2175,160.5471,62.3414,120.1469,-0.00089249,-0.00014467,0.0,0 STARLINK-3760,1 52298U 22041AP  22232.91667824 -.00014467  00000-0 -89249-3 0  9998,2 52298  53.2175 160.5471 0001699  62.3414 120.1469 15.08848609  1306,6917.854,95.437,540.894,538.544,0.0
52298.0,STARLINK-3760,PAYLOAD,2022-08-21 14:00:01,15.08817587,0.0001579,53.2175,157.554,60.2121,145.4715,0.00052866,8.131e-05,0.0,0 STARLINK-3760,1 52298U 22041AP  22233.58334491  .00008131  00000-0  52866-3 0  9997,2 52298  53.2175 157.5540 0001579  60.2121 145.4715 15.08817587  1303,6917.949000000001,95.439,540.906,538.722,0.0
52298.0,STARLINK-3760,PAYLOAD,2022-08-21 22:00:00,15.0884071,0.0001624,53.2178,156.0584,61.5666,155.6835,-0.0011458,-0.00018478,0.0,0 STARLINK-3760,1 52298U 22041AP  22233.91667824 -.00018478  00000-0 -11458-2 0  9991,2 52298  53.2178 156.0584 0001624  61.5666 155.6835 15.08840710  1307,6917.878000000002,95.438,540.867,538.62,0.0
52298.0,STARLINK-3760,PAYLOAD,2022-08-22 06:00:00,15.08809936,0.0001728,53.2175,154.5632,54.8725,173.9667,0.0030039,0.00047804,0.0,0 STARLINK-3760,1 52298U 22041AP  22234.25001157  .00047804  00000-0  30039-2 0  9999,2 52298  53.2175 154.5632 0001728  54.8725 173.9667 15.08809936 20152,6917.972,95.439,541.033,538.6419999999998,0.0
52298.0,STARLINK-3760,PAYLOAD,2022-08-22 12:00:00,15.08841752,0.0001614,53.2177,153.4396,60.7502,86.7712,-0.00079555,-0.00012928,0.0,0 STARLINK-3760,1 52298U 22041AP  22234.50001157 -.00012928  00000-0 -79555-3 0  9995,2 52298  53.2177 153.4396 0001614  60.7502  86.7712 15.08841752  1302,6917.875,95.437,540.857,538.623,0.0
